STARLINK-36820          
1 67966U 26038F   26069.16668981 -.01653787  00000+0 -74963-2 0  9990
2 67966  97.2727  79.4787 0001339  93.5596 164.1055 15.86673905  3279
STARLINK-36819          
1 67967U 26038G   26069.16668981 -.01640991  00000+0 -73797-2 0  9998
2 67967  97.2725  79.4806 0001273  94.0057 168.3960 15.86812115  3274
STARLINK-36812          
1 67968U 26038H   26069.16668981 -.01635723  00000+0 -73095-2 0  9997
2 67968  97.2719  79.4817 0001264  89.6390 176.7847 15.86931442  3272
STARLINK-36709          
1 67969U 26038J   26069.16668981 -.01639882  00000+0 -72225-2 0  9992
2 67969  97.2718  79.4862 0001205  94.8930 181.2363 15.87233509  3279
STARLINK-36319          
1 67970U 26038K   26069.16668981 -.01648399  00000+0 -73177-2 0  9994
2 67970  97.2717  79.4838 0001244  95.5577 175.6775 15.87088358  3242
STARLINK-36710          
1 67971U 26038L   26069.16668981 -.01645883  00000+0 -71843-2 0  9998
2 67971  97.2712  79.4887 0001212  96.7984 185.3002 15.87424973  3273
STARLINK-36894          
1 67972U 26038M   26069.16668981 -.01637706  00000+0 -70913-2 0  9991
2 67972  97.2706  79.4904 0001194  92.5517 194.4431 15.87572999  3271
STARLINK-36900          
1 67973U 26038N   26069.16668981 -.01639702  00000+0 -69928-2 0  9994
2 67973  97.2705  79.4945 0001178  88.4363 208.3713 15.87882376  3272
STARLINK-36901          
1 67974U 26038P   26069.16668981 -.01634540  00000+0 -70255-2 0  9995
2 67974  97.2705  79.4921 0001194  92.6674 198.9754 15.87715930  3277
STARLINK-36883          
1 67975U 26038Q   26069.16668981 -.01630702  00000+0 -67361-2 0  9996
2 67975  97.2692  79.5026 0001187  91.4984 225.2616 15.88504511  3276
STARLINK-36880          
1 67976U 26038R   26069.16668981 -.01637448  00000+0 -69278-2 0  9990
2 67976  97.2700  79.4964 0001174  92.1161 209.7138 15.88038125  3277
STARLINK-36904          
1 67977U 26038S   26069.16668981 -.01634676  00000+0 -68077-2 0  9997
2 67977  97.2693  79.5001 0001151  88.6454 223.1078 15.88349643  3275
STARLINK-36364          
1 67978U 26038T   26069.16668981 -.01630061  00000+0 -66074-2 0  9997
2 67978  97.2682  79.5073 0001134  87.9746 240.5836 15.88880329  3276
STARLINK-36359          
1 67979U 26038U   26069.16668981 -.01635939  00000+0 -68762-2 0  9993
2 67979  97.2697  79.4975 0001198  89.5281 216.4806 15.88166579  3278
STARLINK-36882          
1 67980U 26038V   26069.16668981 -.01632044  00000+0 -66761-2 0  9996
2 67980  97.2685  79.5049 0001133  89.8962 233.0661 15.88702256  3270
STARLINK-36874          
1 67981U 26038W   26069.08336806 -.01622434  00000+0 -64349-2 0  9998
2 67981  97.2681  79.4206 0001464  80.7593 135.5271 15.89294042  3260
STARLINK-36879          
1 67982U 26038X   26069.08336806 -.01829211  89907-3 -63764-2 0  9998
2 67982  97.2675  79.4225 0001423  84.2743 136.9743 15.89451873  3262
STARLINK-36867          
1 67983U 26038Y   26069.08336806 -.01812308  88639-3 -62182-2 0  9992
2 67983  97.2671  79.4270 0001446  83.8848 147.4654 15.89766470  3265
STARLINK-36266          
1 67984U 26038Z   26069.08336806 -.01820464  89259-3 -62908-2 0  9990
2 67984  97.2674  79.4252 0001453  88.8894 137.9198 15.89625211  3234
STARLINK-36802          
1 67985U 26038AA  26069.08336806 -.01792034  86905-3 -61104-2 0  9994
2 67985  97.2669  79.4285 0001339  83.7355 151.7606 15.89888673  3268
STARLINK-36535          
1 67986U 26039A   26069.08336806  .00036128  00000+0  17368-3 0  9990
2 67986  42.9991  52.5264 0001575 250.1887 239.8595 15.81980344  2944
STARLINK-36744          
1 67987U 26039B   26069.08336806 -.00065163  00000+0 -30900-3 0  9991
2 67987  42.9991  52.5154 0001775 276.8550 217.4494 15.82032353  2946
STARLINK-36734          
1 67988U 26039C   26069.08336806 -.00038430  00000+0 -18064-3 0  9996
2 67988  42.9989  52.5044 0001541 258.7237 239.8433 15.82032746  2941
STARLINK-36957          
1 67989U 26039D   26069.08336806 -.00245480  00000+0 -11888-2 0  9998
2 67989  42.9988  52.4933 0002223 269.8963 232.8811 15.82149769  2941
STARLINK-36951          
1 67990U 26039E   26068.91668981 -.01292133  00000+0 -66096-2 0  9992
2 67990  42.9986  53.5041 0001598 252.7697  23.1641 15.83119469  2916
STARLINK-36941          
1 67991U 26039F   26069.08336806 -.00900745  00000+0 -45990-2 0  9994
2 67991  42.9986  52.4718 0001641 257.2286 253.8117 15.82656571  2941
STARLINK-36950          
1 67992U 26039G   26069.08336806 -.01200689  00000+0 -61504-2 0  9995
2 67992  42.9989  52.4615 0001314 271.9178 243.2335 15.82893585  2944
STARLINK-36975          
1 67993U 26039H   26069.08336806 -.01424869  00000+0 -72198-2 0  9995
2 67993  42.9987  52.4515 0001495 270.9696 248.2466 15.83141640  2945
STARLINK-36993          
1 67994U 26039J   26069.08336806 -.01464202  00000+0 -73899-2 0  9990
2 67994  42.9988  52.4417 0001454 263.8354 259.4657 15.83296949  2944
STARLINK-36968          
1 67995U 26039K   26069.08336806 -.01579980  00000+0 -79880-2 0  9997
2 67995  42.9986  52.4203 0001380 265.7123 265.9392 15.83478486  2945
STARLINK-36979          
1 67996U 26039L   26069.08336806 -.01489963  00000+0 -75435-2 0  9991
2 67996  42.9986  52.4307 0001443 264.3278 263.2861 15.83279655  2946
STARLINK-36994          
1 67997U 26039M   26069.08336806 -.01598288  00000+0 -79962-2 0  9992
2 67997  42.9985  52.3995 0001459 259.9964 279.7978 15.83730126  2943
STARLINK-36988          
1 67998U 26039N   26069.08336806 -.01576343  00000+0 -79317-2 0  9995
2 67998  42.9986  52.4096 0001256 260.4491 275.3262 15.83572353  2949
STARLINK-36926          
1 67999U 26039P   26069.08336806 -.01557363  00000+0 -77205-2 0  9991
2 67999  42.9986  52.3901 0001359 266.5549 277.2710 15.83843889  2943
STARLINK-36931          
1 68000U 26039Q   26069.08336806 -.01334090  00000+0 -65837-2 0  9993
2 68000  42.9986  52.3806 0001575 267.5816 280.1362 15.83957970  2942
STARLINK-36903          
1 68001U 26039R   26069.08336806 -.01607476  00000+0 -78748-2 0  9990
2 68001  42.9985  52.3698 0001437 257.0744 294.6400 15.84182714  2942
STARLINK-36898          
1 68002U 26039S   26069.08336806 -.01607918  00000+0 -77721-2 0  9992
2 68002  42.9983  52.3495 0001428 253.1957 306.4076 15.84459808  2941
STARLINK-36862          
1 68003U 26039T   26069.08336806 -.01612939  00000+0 -76846-2 0  9999
2 68003  42.9983  52.3301 0001390 261.5532 305.7762 15.84766473  2941
STARLINK-36888          
1 68004U 26039U   26069.08336806 -.01609863  00000+0 -78301-2 0  9990
2 68004  42.9985  52.3599 0001421 259.1481 296.4906 15.84335462  2940
STARLINK-36910          
1 68005U 26039V   26069.08336806 -.01613592  00000+0 -77508-2 0  9993
2 68005  42.9983  52.3396 0001375 266.8441 296.6769 15.84600015  2941
STARLINK-36889          
1 68006U 26039W   26069.08336806 -.01608093  00000+0 -76031-2 0  9994
2 68006  42.9982  52.3197 0001235 261.4983 309.6564 15.84916005  2944
STARLINK-36592          
1 68007U 26039X   26069.08336806 -.01610606  00000+0 -75597-2 0  9994
2 68007  42.9977  52.3111 0001342 262.5989 312.3585 15.85068368  2947
STARLINK-36911          
1 68008U 26039Y   26069.08336806 -.01611519  00000+0 -75146-2 0  9999
2 68008  42.9979  52.3014 0001415 257.2596 321.5375 15.85202901  2940
STARLINK-36956          
1 68009U 26039Z   26069.08336806 -.01598933  00000+0 -73976-2 0  9993
2 68009  42.9976  52.2915 0001346 256.5778 325.9994 15.85340718  2948
STARLINK-36953          
1 68010U 26039AA  26069.08336806 -.01626914  00000+0 -74512-2 0  9993
2 68010  42.9975  52.2715 0001249 262.1937 328.0832 15.85599907  2940
STARLINK-36991          
1 68011U 26039AB  26069.08336806 -.01628368  00000+0 -74118-2 0  9991
2 68011  42.9974  52.2622 0001420 255.5794 338.5125 15.85726068  2946
STARLINK-36936          
1 68012U 26039AC  26069.08336806 -.01631839  00000+0 -73353-2 0  9999
2 68012  42.9973  52.2425 0001433 261.2484 340.4053 15.85985902  2947
STARLINK-36967          
1 68013U 26039AD  26069.08336806 -.01610952  00000+0 -74109-2 0  9993
2 68013  42.9974  52.2811 0001434 256.0223 330.3744 15.85477863  2949
STARLINK-36985          
1 68014U 26039AE  26069.08336806 -.01632662  00000+0 -73831-2 0  9997
2 68014  42.9974  52.2528 0001459 251.8442 345.9962 15.85865758  2946
STARLINK-36335          
1 68015U 26040A   26069.08336806 -.01162986  45685-3 -17695-2 0  9995
2 68015  97.2779  17.2920 0001184 110.0381 121.0101 16.04545663  2437
STARLINK-36923          
1 68016U 26040B   26069.08336806 -.01167380  46122-3 -17538-2 0  9992
2 68016  97.2779  17.2944 0001019 100.8516 135.5774 16.04757498  2480
STARLINK-36568          
1 68017U 26040C   26069.08336806 -.01160329  45660-3 -17331-2 0  9996
2 68017  97.2777  17.2956 0001107 109.7123 129.1890 16.04852802  2485
STARLINK-36930          
1 68018U 26040D   26069.08336806 -.01165402  45920-3 -17619-2 0  9992
2 68018  97.2777  17.2933 0001040 107.4866 126.2398 16.04652527  2489
STARLINK-36921          
1 68019U 26040E   26068.91668981 -.01165465  46351-3 -16823-2 0  9990
2 68019  97.2780  17.1161 0000909  98.8732 261.9757 16.05419566  2463
STARLINK-36928          
1 68020U 26040F   26069.08336806 -.01167955  46265-3 -17355-2 0  9990
2 68020  97.2774  17.2959 0001039 104.3660 136.4674 16.04939697  2489
STARLINK-36858          
1 68021U 26040G   26069.08336806 -.01189432  47973-3 -17453-2 0  9991
2 68021  97.2768  17.2977 0001100 115.3765 130.3771 16.05152021  2480
STARLINK-36916          
1 68022U 26040H   26069.08336806 -.01193769  48360-3 -17403-2 0  9996
2 68022  97.2774  17.2995 0001085 117.5124 130.9538 16.05260061  2484
STARLINK-36871          
1 68023U 26040J   26069.08336806 -.01153685  45447-3 -16727-2 0  9991
2 68023  97.2770  17.3002 0001051 108.8024 142.2293 16.05343997  2480
STARLINK-36891          
1 68024U 26040K   26069.08336806 -.01165523  46386-3 -16767-2 0  9993
2 68024  97.2767  17.3019 0001082 114.3316 139.8826 16.05475174  2482
